[{"OBJECT_NAME":"SITRO-AIS 8 (ANOKHIN)","OBJECT_ID":"2023-091AD","EPOCH":"2026-03-09T23:44:40.058592","MEAN_MOTION":15.29359179,"ECCENTRICITY":0.0012509,"INCLINATION":97.5169,"RA_OF_ASC_NODE":133.2823,"ARG_OF_PERICENTER":92.0171,"MEAN_ANOMALY":268.2501,"EPHEMERIS_TYPE":0,"CLASSIFICATION_TYPE":"U","NORAD_CAT_ID":57193,"ELEMENT_SET_NO":999,"REV_AT_EPOCH":14927,"BSTAR":0.00064982524,"MEAN_MOTION_DOT":0.00018494,"MEAN_MOTION_DDOT":0},{"OBJECT_NAME":"STARLINK-33601","OBJECT_ID":"2025-015L","EPOCH":"2026-03-09T21:30:01.528992","MEAN_MOTION":15.30238028,"ECCENTRICITY":0.00020816,"INCLINATION":53.162,"RA_OF_ASC_NODE":321.431,"ARG_OF_PERICENTER":149.2895,"MEAN_ANOMALY":210.8228,"EPHEMERIS_TYPE":0,"CLASSIFICATION_TYPE":"U","NORAD_CAT_ID":62768,"ELEMENT_SET_NO":999,"REV_AT_EPOCH":6451,"BSTAR":0.001463407,"MEAN_MOTION_DOT":0.00043288,"MEAN_MOTION_DDOT":0}]
